start=new Date('2021-10-04T00:00:00.000Z').valueOf();
sats=[{"INCLINATION":"53.0537","TIME_SYSTEM":"UTC","MEAN_MOTION_DDOT":"0.0000000000000","BSTAR":"0.00013060000000","CLASSIFICATION_TYPE":"U","TLE_LINE2":"2 46547  53.0537 239.2352 0001437  71.2552 288.8593 15.06399070 55669","LAUNCH_DATE":"2020-10-06","MEAN_MOTION_DOT":"0.00001664","PERIAPSIS":"546.221","MEAN_ELEMENT_THEORY":"SGP4","DECAY_DATE":null,"GP_ID":"186143030","APOAPSIS":"548.212","RA_OF_ASC_NODE":"239.2352","ARG_OF_PERICENTER":"71.2552","REF_FRAME":"TEME","ELEMENT_SET_NO":"999","EPOCH":"2021-10-03T21:13:37.197984","OBJECT_ID":"2020-070R","MEAN_ANOMALY":"288.8593","TLE_LINE1":"1 46547U 20070R   21276.88445831  .00001664  00000-0  13060-3 0  9994","FILE":"3143202","SEMIMAJOR_AXIS":"6925.351","MEAN_MOTION":"15.06399070","ECCENTRICITY":"0.00014370","PERIOD":"95.592","SITE":"AFETR","CENTER_NAME":"EARTH","NORAD_CAT_ID":"46547","OBJECT_TYPE":"PAYLOAD","REV_AT_EPOCH":"5566","RCS_SIZE":"LARGE","COUNTRY_CODE":"US","EPHEMERIS_TYPE":"0","OBJECT_NAME":"STARLINK-1698"},{"PERIOD":"95.593","CENTER_NAME":"EARTH","SITE":"AFETR","NORAD_CAT_ID":"46548","OBJECT_TYPE":"PAYLOAD","ECCENTRICITY":"0.00014780","COUNTRY_CODE":"US","EPHEMERIS_TYPE":"0","OBJECT_NAME":"STARLINK-1699","REV_AT_EPOCH":"5566","RCS_SIZE":"LARGE","EPOCH":"2021-10-03T21:29:32.539200","OBJECT_ID":"2020-070S","REF_FRAME":"TEME","ELEMENT_SET_NO":"999","FILE":"3143202","TLE_LINE1":"1 46548U 20070S   21276.89551550  .00000443  00000-0  48614-4 0  9990","SEMIMAJOR_AXIS":"6925.377","MEAN_MOTION":"15.06390654","MEAN_ANOMALY":"286.8896","DECAY_DATE":null,"RA_OF_ASC_NODE":"239.1895","APOAPSIS":"548.266","ARG_OF_PERICENTER":"73.2255","GP_ID":"186141778","CLASSIFICATION_TYPE":"U","INCLINATION":"53.0555","TIME_SYSTEM":"UTC","BSTAR":"0.00004861400000","MEAN_MOTION_DDOT":"0.0000000000000","PERIAPSIS":"546.219","MEAN_ELEMENT_THEORY":"SGP4","LAUNCH_DATE":"2020-10-06","TLE_LINE2":"2 46548  53.0555 239.1895 0001478  73.2255 286.8896 15.06390654 55661","MEAN_MOTION_DOT":"0.00000443"},{"INCLINATION":"53.0538","TIME_SYSTEM":"UTC","BSTAR":"-0.00000661700000","MEAN_MOTION_DDOT":"0.0000000000000","CLASSIFICATION_TYPE":"U","LAUNCH_DATE":"2020-10-06","TLE_LINE2":"2 46549  53.0538 239.0551 0001584  69.5855 290.5304 15.06391010 55666","MEAN_MOTION_DOT":"-0.00000380","PERIAPSIS":"546.144","MEAN_ELEMENT_THEORY":"SGP4","DECAY_DATE":null,"GP_ID":"186142028","APOAPSIS":"548.338","RA_OF_ASC_NODE":"239.0551","ARG_OF_PERICENTER":"69.5855","REF_FRAME":"TEME","ELEMENT_SET_NO":"999","EPOCH":"2021-10-03T22:10:37.963200","OBJECT_ID":"2020-070T","MEAN_ANOMALY":"290.5304","FILE":"3143202","TLE_LINE1":"1 46549U 20070T   21276.92405050 -.00000380  00000-0 -66170-5 0  9998","SEMIMAJOR_AXIS":"6925.376","MEAN_MOTION":"15.06391010","ECCENTRICITY":"0.00015840","PERIOD":"95.593","CENTER_NAME":"EARTH","SITE":"AFETR","NORAD_CAT_ID":"46549","OBJECT_TYPE":"PAYLOAD","REV_AT_EPOCH":"5566","RCS_SIZE":"LARGE","EPHEMERIS_TYPE":"0","COUNTRY_CODE":"US","OBJECT_NAME":"STARLINK-1700"},{"GP_ID":"186142293","APOAPSIS":"548.124","RA_OF_ASC_NODE":"239.1151","ARG_OF_PERICENTER":"61.4478","DECAY_DATE":null,"TLE_LINE2":"2 46550  53.0530 239.1151 0001289  61.4478 298.6641 15.06394367 55662","LAUNCH_DATE":"2020-10-06","MEAN_MOTION_DOT":"-0.00001200","PERIAPSIS":"546.338","MEAN_ELEMENT_THEORY":"SGP4","INCLINATION":"53.0530","TIME_SYSTEM":"UTC","BSTAR":"-0.00006170200000","MEAN_MOTION_DDOT":"0.0000000000000","CLASSIFICATION_TYPE":"U","REV_AT_EPOCH":"5566","RCS_SIZE":"LARGE","COUNTRY_CODE":"US","EPHEMERIS_TYPE":"0","OBJECT_NAME":"STARLINK-1701","ECCENTRICITY":"0.00012890","PERIOD":"95.592","SITE":"AFETR","CENTER_NAME":"EARTH","NORAD_CAT_ID":"46550","OBJECT_TYPE":"PAYLOAD","MEAN_ANOMALY":"298.6641","TLE_LINE1":"1 46550U 20070U   21276.91025074 -.00001200  00000-0 -61702-4 0  9990","FILE":"3143202","SEMIMAJOR_AXIS":"6925.366","MEAN_MOTION":"15.06394367","REF_FRAME":"TEME","ELEMENT_SET_NO":"999","EPOCH":"2021-10-03T21:50:45.663936","OBJECT_ID":"2020-070U"},{"ELEMENT_SET_NO":"999","REF_FRAME":"TEME","EPOCH":"2021-10-03T06:31:50.761920","OBJECT_ID":"2020-070W","MEAN_ANOMALY":"297.5102","SEMIMAJOR_AXIS":"6925.350","MEAN_MOTION":"15.06399631","FILE":"3142499","TLE_LINE1":"1 46552U 20070W   21276.27211530  .00000609  00000-0  59787-4 0  9995","ECCENTRICITY":"0.00014120","NORAD_CAT_ID":"46552","OBJECT_TYPE":"PAYLOAD","PERIOD":"95.592","CENTER_NAME":"EARTH","SITE":"AFETR","RCS_SIZE":"LARGE","REV_AT_EPOCH":"5578","EPHEMERIS_TYPE":"0","COUNTRY_CODE":"US","OBJECT_NAME":"STARLINK-1649","MEAN_MOTION_DDOT":"0.0000000000000","BSTAR":"0.00005978700000","INCLINATION":"53.0534","TIME_SYSTEM":"UTC","CLASSIFICATION_TYPE":"U","LAUNCH_DATE":"2020-10-06","TLE_LINE2":"2 46552  53.0534 226.9839 0001412  62.6030 297.5102 15.06399631 55782","MEAN_MOTION_DOT":"0.00000609","MEAN_ELEMENT_THEORY":"SGP4","PERIAPSIS":"546.237","DECAY_DATE":null,"GP_ID":"186103021","ARG_OF_PERICENTER":"62.6030","APOAPSIS":"548.193","RA_OF_ASC_NODE":"226.9839"},{"RA_OF_ASC_NODE":"209.4771","APOAPSIS":"548.536","ARG_OF_PERICENTER":"66.3127","GP_ID":"186141292","DECAY_DATE":null,"PERIAPSIS":"545.949","MEAN_ELEMENT_THEORY":"SGP4","TLE_LINE2":"2 46553  53.0527 209.4771 0001868  66.3127 293.8058 15.06390547 56078","LAUNCH_DATE":"2020-10-06","MEAN_MOTION_DOT":"-0.00003172","CLASSIFICATION_TYPE":"U","INCLINATION":"53.0527","TIME_SYSTEM":"UTC","BSTAR":"-0.00019417000000","MEAN_MOTION_DDOT":"0.0000000000000","EPHEMERIS_TYPE":"0","COUNTRY_CODE":"US","OBJECT_NAME":"STARLINK-1664","REV_AT_EPOCH":"5607","RCS_SIZE":"LARGE","PERIOD":"95.593","SITE":"AFETR","CENTER_NAME":"EARTH","NORAD_CAT_ID":"46553","OBJECT_TYPE":"PAYLOAD","ECCENTRICITY":"0.00018680","TLE_LINE1":"1 46553U 20070X   21276.83097812 -.00003172  00000-0 -19417-3 0  9998","FILE":"3143202","SEMIMAJOR_AXIS":"6925.378","MEAN_MOTION":"15.06390547","MEAN_ANOMALY":"293.8058","EPOCH":"2021-10-03T19:56:36.509568","OBJECT_ID":"2020-070X","REF_FRAME":"TEME","ELEMENT_SET_NO":"999"},{"GP_ID":"186141542","APOAPSIS":"548.415","RA_OF_ASC_NODE":"224.2389","ARG_OF_PERICENTER":"67.3863","DECAY_DATE":null,"LAUNCH_DATE":"2020-10-06","TLE_LINE2":"2 46554  53.0530 224.2389 0001678  67.3863 292.7303 15.06387085 55871","MEAN_MOTION_DOT":"-0.00001515","PERIAPSIS":"546.091","MEAN_ELEMENT_THEORY":"SGP4","INCLINATION":"53.0530","TIME_SYSTEM":"UTC","BSTAR":"-0.00008283600000","MEAN_MOTION_DDOT":"0.0000000000000","CLASSIFICATION_TYPE":"U","REV_AT_EPOCH":"5587","RCS_SIZE":"LARGE","EPHEMERIS_TYPE":"0","COUNTRY_CODE":"US","OBJECT_NAME":"STARLINK-1671","ECCENTRICITY":"0.00016780","PERIOD":"95.593","SITE":"AFETR","CENTER_NAME":"EARTH","NORAD_CAT_ID":"46554","OBJECT_TYPE":"PAYLOAD","MEAN_ANOMALY":"292.7303","TLE_LINE1":"1 46554U 20070Y   21276.88399373 -.00001515  00000-0 -82836-4 0  9996","FILE":"3143202","SEMIMAJOR_AXIS":"6925.388","MEAN_MOTION":"15.06387085","REF_FRAME":"TEME","ELEMENT_SET_NO":"999","EPOCH":"2021-10-03T21:12:57.058272","OBJECT_ID":"2020-070Y"},{"DECAY_DATE":null,"APOAPSIS":"360.489","RA_OF_ASC_NODE":"191.5647","ARG_OF_PERICENTER":"129.7624","GP_ID":"186118480","CLASSIFICATION_TYPE":"U","INCLINATION":"53.0503","TIME_SYSTEM":"UTC","MEAN_MOTION_DDOT":"0.0000000000000","BSTAR":"0.01135800000000","PERIAPSIS":"358.763","MEAN_ELEMENT_THEORY":"SGP4","TLE_LINE2":"2 46555  53.0503 191.5647 0001281 129.7624 230.2728 15.69745886 56339","LAUNCH_DATE":"2020-10-06","MEAN_MOTION_DOT":"0.01546928","PERIOD":"91.735","SITE":"AFETR","CENTER_NAME":"EARTH","NORAD_CAT_ID":"46555","OBJECT_TYPE":"PAYLOAD","ECCENTRICITY":"0.00012810","EPHEMERIS_TYPE":"0","COUNTRY_CODE":"US","OBJECT_NAME":"STARLINK-1674","REV_AT_EPOCH":"5633","RCS_SIZE":"LARGE","EPOCH":"2021-10-03T21:57:07.138080","OBJECT_ID":"2020-070Z","REF_FRAME":"TEME","ELEMENT_SET_NO":"999","TLE_LINE1":"1 46555U 20070Z   21276.91466595  .01546928  00000-0  11358-1 0  9991","FILE":"3143103","SEMIMAJOR_AXIS":"6737.761","MEAN_MOTION":"15.69745886","MEAN_ANOMALY":"230.2728"},{"DECAY_DATE":null,"APOAPSIS":"548.392","RA_OF_ASC_NODE":"239.2673","ARG_OF_PERICENTER":"74.3187","GP_ID":"186143031","CLASSIFICATION_TYPE":"U","TIME_SYSTEM":"UTC","INCLINATION":"53.0549","BSTAR":"0.00000923770000","MEAN_MOTION_DDOT":"0.0000000000000","PERIAPSIS":"546.064","MEAN_ELEMENT_THEORY":"SGP4","MEAN_MOTION_DOT":"-0.00000144","TLE_LINE2":"2 46556  53.0549 239.2673 0001681  74.3187 285.7987 15.06395283 55662","LAUNCH_DATE":"2020-10-06","SITE":"AFETR","CENTER_NAME":"EARTH","PERIOD":"95.592","OBJECT_TYPE":"PAYLOAD","NORAD_CAT_ID":"46556","ECCENTRICITY":"0.00016810","OBJECT_NAME":"STARLINK-1676","EPHEMERIS_TYPE":"0","COUNTRY_CODE":"US","REV_AT_EPOCH":"5566","RCS_SIZE":"LARGE","OBJECT_ID":"2020-070AA","EPOCH":"2021-10-03T21:02:59.440704","REF_FRAME":"TEME","ELEMENT_SET_NO":"999","FILE":"3143202","TLE_LINE1":"1 46556U 20070AA  21276.87707686 -.00000144  00000-0  92377-5 0  9995","MEAN_MOTION":"15.06395283","SEMIMAJOR_AXIS":"6925.363","MEAN_ANOMALY":"285.7987"},{"TLE_LINE2":"2 46557  53.0535 224.3651 0001569  68.0596 292.0559 15.06399117 55877","LAUNCH_DATE":"2020-10-06","MEAN_MOTION_DOT":"0.00000097","MEAN_ELEMENT_THEORY":"SGP4","PERIAPSIS":"546.130","MEAN_MOTION_DDOT":"0.0000000000000","BSTAR":"0.00002538600000","INCLINATION":"53.0535","TIME_SYSTEM":"UTC","CLASSIFICATION_TYPE":"U","GP_ID":"186141779","ARG_OF_PERICENTER":"68.0596","RA_OF_ASC_NODE":"224.3651","APOAPSIS":"548.303","DECAY_DATE":null,"MEAN_ANOMALY":"292.0559","SEMIMAJOR_AXIS":"6925.351","MEAN_MOTION":"15.06399117","FILE":"3143202","TLE_LINE1":"1 46557U 20070AB  21276.85449419  .00000097  00000-0  25386-4 0  9992","ELEMENT_SET_NO":"999","REF_FRAME":"TEME","EPOCH":"2021-10-03T20:30:28.298016","OBJECT_ID":"2020-070AB","RCS_SIZE":"LARGE","REV_AT_EPOCH":"5587","EPHEMERIS_TYPE":"0","COUNTRY_CODE":"US","OBJECT_NAME":"STARLINK-1679","ECCENTRICITY":"0.00015690","NORAD_CAT_ID":"46557","OBJECT_TYPE":"PAYLOAD","PERIOD":"95.592","CENTER_NAME":"EARTH","SITE":"AFETR"}];
